[{"OBJECT_NAME":"IRIDIUM 103","OBJECT_ID":"2017-003B","EPOCH":"2026-03-09T15:54:14.180832","MEAN_MOTION":14.34218399,"ECCENTRICITY":0.00020548,"INCLINATION":86.3981,"RA_OF_ASC_NODE":130.0732,"ARG_OF_PERICENTER":88.2192,"MEAN_ANOMALY":271.9239,"EPHEMERIS_TYPE":0,"CLASSIFICATION_TYPE":"U","NORAD_CAT_ID":41918,"ELEMENT_SET_NO":999,"REV_AT_EPOCH":47896,"BSTAR":3.8019926e-5,"MEAN_MOTION_DOT":1.26e-6,"MEAN_MOTION_DDOT":0},{"OBJECT_NAME":"THORAD DELTA 1 DEB","OBJECT_ID":"1974-089FH","EPOCH":"2026-03-09T22:56:34.016928","MEAN_MOTION":14.31074117,"ECCENTRICITY":0.00120206,"INCLINATION":101.6791,"RA_OF_ASC_NODE":228.7961,"ARG_OF_PERICENTER":242.0789,"MEAN_ANOMALY":242.9496,"EPHEMERIS_TYPE":0,"CLASSIFICATION_TYPE":"U","NORAD_CAT_ID":37148,"ELEMENT_SET_NO":999,"REV_AT_EPOCH":78246,"BSTAR":0.013436055,"MEAN_MOTION_DOT":0.00035559,"MEAN_MOTION_DDOT":0}]
